{
  "norad_id": 45189,
  "name": "STARLINK-1230",
  "history": [
    {
      "epoch": "2026-03-28T21:18:40.155264Z",
      "apogee_km": 476.1146362348127,
      "perigee_km": 474.3253617895107,
      "latitude_deg": -1.282468040010453e-05,
      "longitude_deg": 164.58682291822612,
      "height_km": 476.08060393464245,
      "semi_major_axis_km": 6853.356999012161,
      "eccentricity": 0.00013054,
      "inclination_deg": 53.1594,
      "raan_deg": 310.5561,
      "arg_perigee_deg": 87.6066,
      "mean_anomaly_deg": 272.5084,
      "mean_motion_rev_day": 15.30198349
    }
  ]
}